FENGYUN 1C DEB          
1 37694U 99025ELK 17345.09316150  .00001454  00000-0  91335-3 0  9997
2 37694  98.2160 296.1526 0180311 121.7593 298.1599 13.98025867107112
